CCSDS_OMM_VERS = 2.0
CREATION_DATE  = 
ORIGINATOR     = 

OBJECT_NAME    = SL-16 R/B
OBJECT_ID      = 1993-016B
CENTER_NAME    = EARTH
REF_FRAME      = TEME
TIME_SYSTEM    = UTC
MEAN_ELEMENT_THEORY = SGP/SGP4

EPOCH          = 2026-01-26T12:21:26.710272
MEAN_MOTION    = 14.15299012
ECCENTRICITY   = .00093911
INCLINATION    = 71.0088
RA_OF_ASC_NODE = 303.7638
ARG_OF_PERICENTER = 15.6266
MEAN_ANOMALY   = 344.5144

EPHEMERIS_TYPE = 0
CLASSIFICATION_TYPE = U
NORAD_CAT_ID   = 22566
ELEMENT_SET_NO = 999
REV_AT_EPOCH   = 69620
BSTAR          = .22530637E-3
MEAN_MOTION_DOT = .391E-5
MEAN_MOTION_DDOT = 0

CCSDS_OMM_VERS = 2.0
CREATION_DATE  = 
ORIGINATOR     = 

OBJECT_NAME    = COSMOS 2242
OBJECT_ID      = 1993-024A
CENTER_NAME    = EARTH
REF_FRAME      = TEME
TIME_SYSTEM    = UTC
MEAN_ELEMENT_THEORY = SGP/SGP4

EPOCH          = 2026-01-26T04:13:15.664800
MEAN_MOTION    = 14.96348391
ECCENTRICITY   = .0018099
INCLINATION    = 82.5205
RA_OF_ASC_NODE = 307.3719
ARG_OF_PERICENTER = 87.8359
MEAN_ANOMALY   = 272.4935

EPHEMERIS_TYPE = 0
CLASSIFICATION_TYPE = U
NORAD_CAT_ID   = 22626
ELEMENT_SET_NO = 999
REV_AT_EPOCH   = 77403
BSTAR          = .3293E-3
MEAN_MOTION_DOT = .3763E-4
MEAN_MOTION_DDOT = 0

CCSDS_OMM_VERS = 2.0
CREATION_DATE  = 
ORIGINATOR     = 

OBJECT_NAME    = SL-16 R/B
OBJECT_ID      = 1993-059B
CENTER_NAME    = EARTH
REF_FRAME      = TEME
TIME_SYSTEM    = UTC
MEAN_ELEMENT_THEORY = SGP/SGP4

EPOCH          = 2026-01-26T14:55:52.765536
MEAN_MOTION    = 14.17223527
ECCENTRICITY   = .00195834
INCLINATION    = 70.9904
RA_OF_ASC_NODE = 99.8431
ARG_OF_PERICENTER = 273.7945
MEAN_ANOMALY   = 86.0939

EPHEMERIS_TYPE = 0
CLASSIFICATION_TYPE = U
NORAD_CAT_ID   = 22803
ELEMENT_SET_NO = 999
REV_AT_EPOCH   = 67357
BSTAR          = -.51544711E-4
MEAN_MOTION_DOT = -.152E-5
MEAN_MOTION_DDOT = 0

CCSDS_OMM_VERS = 2.0
CREATION_DATE  = 
ORIGINATOR     = 

OBJECT_NAME    = ARIANE 40 R/B
OBJECT_ID      = 1993-061H
CENTER_NAME    = EARTH
REF_FRAME      = TEME
TIME_SYSTEM    = UTC
MEAN_ELEMENT_THEORY = SGP/SGP4

EPOCH          = 2026-01-26T14:10:16.739328
MEAN_MOTION    = 14.32836827
ECCENTRICITY   = .00115096
INCLINATION    = 98.5005
RA_OF_ASC_NODE = 96.2902
ARG_OF_PERICENTER = 53.2904
MEAN_ANOMALY   = 306.9336

EPHEMERIS_TYPE = 0
CLASSIFICATION_TYPE = U
NORAD_CAT_ID   = 22830
ELEMENT_SET_NO = 999
REV_AT_EPOCH   = 68807
BSTAR          = .17054525E-3
MEAN_MOTION_DOT = .422E-5
MEAN_MOTION_DDOT = 0

CCSDS_OMM_VERS = 2.0
CREATION_DATE  = 
ORIGINATOR     = 

OBJECT_NAME    = COSMOS 2278
OBJECT_ID      = 1994-023A
CENTER_NAME    = EARTH
REF_FRAME      = TEME
TIME_SYSTEM    = UTC
MEAN_ELEMENT_THEORY = SGP/SGP4

EPOCH          = 2026-01-26T15:47:56.700960
MEAN_MOTION    = 14.14367025
ECCENTRICITY   = .00062861
INCLINATION    = 71.0527
RA_OF_ASC_NODE = 263.0357
ARG_OF_PERICENTER = 93.3673
MEAN_ANOMALY   = 266.8169

EPHEMERIS_TYPE = 0
CLASSIFICATION_TYPE = U
NORAD_CAT_ID   = 23087
ELEMENT_SET_NO = 999
REV_AT_EPOCH   = 63886
BSTAR          = -.26156104E-4
MEAN_MOTION_DOT = -.97E-6
MEAN_MOTION_DDOT = 0

CCSDS_OMM_VERS = 2.0
CREATION_DATE  = 
ORIGINATOR     = 

OBJECT_NAME    = SL-16 R/B
OBJECT_ID      = 1994-023B
CENTER_NAME    = EARTH
REF_FRAME      = TEME
TIME_SYSTEM    = UTC
MEAN_ELEMENT_THEORY = SGP/SGP4

EPOCH          = 2026-01-26T15:40:31.511136
MEAN_MOTION    = 14.15006666
ECCENTRICITY   = .00041913
INCLINATION    = 71.0002
RA_OF_ASC_NODE = 159.1674
ARG_OF_PERICENTER = 323.9104
MEAN_ANOMALY   = 36.1735

EPHEMERIS_TYPE = 0
CLASSIFICATION_TYPE = U
NORAD_CAT_ID   = 23088
ELEMENT_SET_NO = 999
REV_AT_EPOCH   = 64014
BSTAR          = -.43068378E-4
MEAN_MOTION_DOT = -.131E-5
MEAN_MOTION_DDOT = 0

CCSDS_OMM_VERS = 2.0
CREATION_DATE  = 
ORIGINATOR     = 

OBJECT_NAME    = SL-16 R/B
OBJECT_ID      = 1994-074B
CENTER_NAME    = EARTH
REF_FRAME      = TEME
TIME_SYSTEM    = UTC
MEAN_ELEMENT_THEORY = SGP/SGP4

EPOCH          = 2026-01-26T12:54:37.825056
MEAN_MOTION    = 14.79353378
ECCENTRICITY   = .00067394
INCLINATION    = 97.7161
RA_OF_ASC_NODE = 59.0532
ARG_OF_PERICENTER = 11.6225
MEAN_ANOMALY   = 144.0209

EPHEMERIS_TYPE = 0
CLASSIFICATION_TYPE = U
NORAD_CAT_ID   = 23343
ELEMENT_SET_NO = 999
REV_AT_EPOCH   = 68101
BSTAR          = .1167089E-3
MEAN_MOTION_DOT = .82E-5
MEAN_MOTION_DDOT = 0

CCSDS_OMM_VERS = 2.0
CREATION_DATE  = 
ORIGINATOR     = 

OBJECT_NAME    = SL-16 R/B
OBJECT_ID      = 1994-077B
CENTER_NAME    = EARTH
REF_FRAME      = TEME
TIME_SYSTEM    = UTC
MEAN_ELEMENT_THEORY = SGP/SGP4

EPOCH          = 2026-01-26T12:14:10.462848
MEAN_MOTION    = 14.15558752
ECCENTRICITY   = .00048066
INCLINATION    = 70.9827
RA_OF_ASC_NODE = 81.2301
ARG_OF_PERICENTER = 250.0885
MEAN_ANOMALY   = 109.9720

EPHEMERIS_TYPE = 0
CLASSIFICATION_TYPE = U
NORAD_CAT_ID   = 23405
ELEMENT_SET_NO = 999
REV_AT_EPOCH   = 61026
BSTAR          = -.48247335E-4
MEAN_MOTION_DOT = -.142E-5
MEAN_MOTION_DDOT = 0

CCSDS_OMM_VERS = 2.0
CREATION_DATE  = 
ORIGINATOR     = 

OBJECT_NAME    = ARIANE 40+ R/B
OBJECT_ID      = 1995-021B
CENTER_NAME    = EARTH
REF_FRAME      = TEME
TIME_SYSTEM    = UTC
MEAN_ELEMENT_THEORY = SGP/SGP4

EPOCH          = 2026-01-26T15:38:56.549760
MEAN_MOTION    = 14.39738748
ECCENTRICITY   = .00056192
INCLINATION    = 98.4581
RA_OF_ASC_NODE = 98.6859
ARG_OF_PERICENTER = 266.5699
MEAN_ANOMALY   = 255.7416

EPHEMERIS_TYPE = 0
CLASSIFICATION_TYPE = U
NORAD_CAT_ID   = 23561
ELEMENT_SET_NO = 999
REV_AT_EPOCH   = 61319
BSTAR          = .18252846E-3
MEAN_MOTION_DOT = .528E-5
MEAN_MOTION_DDOT = 0

CCSDS_OMM_VERS = 2.0
CREATION_DATE  = 
ORIGINATOR     = 

OBJECT_NAME    = SL-16 R/B
OBJECT_ID      = 1995-058B
CENTER_NAME    = EARTH
REF_FRAME      = TEME
TIME_SYSTEM    = UTC
MEAN_ELEMENT_THEORY = SGP/SGP4

EPOCH          = 2026-01-26T08:57:42.666336
MEAN_MOTION    = 14.15488257
ECCENTRICITY   = .00130455
INCLINATION    = 71.0201
RA_OF_ASC_NODE = 269.0985
ARG_OF_PERICENTER = 194.2866
MEAN_ANOMALY   = 165.7890

EPHEMERIS_TYPE = 0
CLASSIFICATION_TYPE = U
NORAD_CAT_ID   = 23705
ELEMENT_SET_NO = 999
REV_AT_EPOCH   = 56186
BSTAR          = -.6361698E-4
MEAN_MOTION_DOT = -.172E-5
MEAN_MOTION_DDOT = 0

CCSDS_OMM_VERS = 2.0
CREATION_DATE  = 
ORIGINATOR     = 

OBJECT_NAME    = SL-16 R/B
OBJECT_ID      = 1996-051B
CENTER_NAME    = EARTH
REF_FRAME      = TEME
TIME_SYSTEM    = UTC
MEAN_ELEMENT_THEORY = SGP/SGP4

EPOCH          = 2026-01-26T02:33:21.806496
MEAN_MOTION    = 14.12403725
ECCENTRICITY   = .00184292
INCLINATION    = 70.7576
RA_OF_ASC_NODE = 265.3745
ARG_OF_PERICENTER = 206.3333
MEAN_ANOMALY   = 153.6852

EPHEMERIS_TYPE = 0
CLASSIFICATION_TYPE = U
NORAD_CAT_ID   = 24298
ELEMENT_SET_NO = 999
REV_AT_EPOCH   = 51563
BSTAR          = .68556366E-4
MEAN_MOTION_DOT = .77E-6
MEAN_MOTION_DDOT = 0

CCSDS_OMM_VERS = 2.0
CREATION_DATE  = 
ORIGINATOR     = 

OBJECT_NAME    = ORBVIEW 2 (SEASTAR)
OBJECT_ID      = 1997-037A
CENTER_NAME    = EARTH
REF_FRAME      = TEME
TIME_SYSTEM    = UTC
MEAN_ELEMENT_THEORY = SGP/SGP4

EPOCH          = 2026-01-26T10:57:42.340320
MEAN_MOTION    = 14.35459288
ECCENTRICITY   = .00024022
INCLINATION    = 98.8496
RA_OF_ASC_NODE = 189.6670
ARG_OF_PERICENTER = 161.1194
MEAN_ANOMALY   = 199.0080

EPHEMERIS_TYPE = 0
CLASSIFICATION_TYPE = U
NORAD_CAT_ID   = 24883
ELEMENT_SET_NO = 999
REV_AT_EPOCH   = 50241
BSTAR          = .22087725E-3
MEAN_MOTION_DOT = .588E-5
MEAN_MOTION_DDOT = 0

