SL-16 R/B               
1 22566U 93016B   26026.51489248  .00000391  00000+0  22531-3 0  9995
2 22566  71.0088 303.7638 0009391  15.6266 344.5144 14.15299012696207
COSMOS 2242             
1 22626U 93024A   26026.17587575  .00003763  00000+0  32930-3 0  9995
2 22626  82.5205 307.3719 0018099  87.8359 272.4935 14.96348391774030
SL-16 R/B               
1 22803U 93059B   26026.62213849 -.00000152  00000+0 -51545-4 0  9995
2 22803  70.9904  99.8431 0019583 273.7945  86.0939 14.17223527673570
ARIANE 40 R/B           
1 22830U 93061H   26026.59047152  .00000422  00000+0  17055-3 0  9991
2 22830  98.5005  96.2902 0011509  53.2904 306.9336 14.32836827688074
COSMOS 2278             
1 23087U 94023A   26026.65829515 -.00000097  00000+0 -26156-4 0  9996
2 23087  71.0527 263.0357 0006286  93.3673 266.8169 14.14367025638865
SL-16 R/B               
1 23088U 94023B   26026.65314249 -.00000131  00000+0 -43068-4 0  9990
2 23088  71.0002 159.1674 0004191 323.9104  36.1735 14.15006666640148
SL-16 R/B               
1 23343U 94074B   26026.53793779  .00000820  00000+0  11671-3 0  9993
2 23343  97.7161  59.0532 0006739  11.6225 144.0209 14.79353378681010
SL-16 R/B               
1 23405U 94077B   26026.50984332 -.00000142  00000+0 -48247-4 0  9998
2 23405  70.9827  81.2301 0004806 250.0885 109.9720 14.15558752610266
ARIANE 40+ R/B          
1 23561U 95021B   26026.65204340  .00000528  00000+0  18253-3 0  9990
2 23561  98.4581  98.6859 0005619 266.5699 255.7416 14.39738748613197
SL-16 R/B               
1 23705U 95058B   26026.37341049 -.00000172  00000+0 -63617-4 0  9999
2 23705  71.0201 269.0985 0013045 194.2866 165.7890 14.15488257561865
SL-16 R/B               
1 24298U 96051B   26026.10650239  .00000077  00000+0  68556-4 0  9995
2 24298  70.7576 265.3745 0018429 206.3333 153.6852 14.12403725515634
ORBVIEW 2 (SEASTAR)     
1 24883U 97037A   26026.45674005  .00000588  00000+0  22088-3 0  9991
2 24883  98.8496 189.6670 0002402 161.1194 199.0080 14.35459288502417
